[
    {
        "Altitude(m)": 711616.0536733258,
        "Argument of Periapsis(deg)": 0.011390121186627068,
        "Eccentricity": 0.0,
        "Inclination(deg)": 45.0,
        "Latitude(deg)": -29.753363185096582,
        "Longitude(deg)": 123.87587638459685,
        "Mean Anomaly(deg)": 224.26051664748087,
        "RAAN(deg)": 9.989248058541795,
        "Satellite Name": "Constellation 1 57",
        "Satellite Number": 57,
        "Semi-Major Axis(m)": 7083131.272910544,
        "Time(s)": 190
    },
    {
        "Altitude(m)": 711629.7520961609,
        "Argument of Periapsis(deg)": 0.011450069192872472,
        "Eccentricity": 0.0,
        "Inclination(deg)": 45.0,
        "Latitude(deg)": -29.788755620589576,
        "Longitude(deg)": 123.92845599413779,
        "Mean Anomaly(deg)": 224.3212177877307,
        "RAAN(deg)": 9.989191469376227,
        "Satellite Name": "Constellation 1 57",
        "Satellite Number": 57,
        "Semi-Major Axis(m)": 7083131.272910544,
        "Time(s)": 191
    },
    {
        "Altitude(m)": 711643.4467246269,
        "Argument of Periapsis(deg)": 0.01151001719911788,
        "Eccentricity": 0.0,
        "Inclination(deg)": 45.0,
        "Latitude(deg)": -29.82412347364575,
        "Longitude(deg)": 123.98107534203089,
        "Mean Anomaly(deg)": 224.38191892798062,
        "RAAN(deg)": 9.989134880210656,
        "Satellite Name": "Constellation 1 57",
        "Satellite Number": 57,
        "Semi-Major Axis(m)": 7083131.272910544,
        "Time(s)": 192
    },
    {
        "Altitude(m)": 711657.1375107209,
        "Argument of Periapsis(deg)": 0.011569965205363285,
        "Eccentricity": 0.0,
        "Inclination(deg)": 45.0,
        "Latitude(deg)": -29.859466692836698,
        "Longitude(deg)": 124.03373431761895,
        "Mean Anomaly(deg)": 224.44262006823058,
        "RAAN(deg)": 9.989078291045088,
        "Satellite Name": "Constellation 1 57",
        "Satellite Number": 57,
        "Semi-Major Axis(m)": 7083131.272910544,
        "Time(s)": 193
    },
    {
        "Altitude(m)": 711670.8244064377,
        "Argument of Periapsis(deg)": 0.01162991321160869,
        "Eccentricity": 0.0,
        "Inclination(deg)": 45.0,
        "Latitude(deg)": -29.894785226662904,
        "Longitude(deg)": 124.0864333144804,
        "Mean Anomaly(deg)": 224.50332120848043,
        "RAAN(deg)": 9.989021701879519,
        "Satellite Name": "Constellation 1 57",
        "Satellite Number": 57,
        "Semi-Major Axis(m)": 7083131.272910544,
        "Time(s)": 194
    },
    {
        "Altitude(m)": 711684.5073637816,
        "Argument of Periapsis(deg)": 0.011689861217854095,
        "Eccentricity": 0.0,
        "Inclination(deg)": 45.0,
        "Latitude(deg)": -29.93007902355316,
        "Longitude(deg)": 124.13917222184796,
        "Mean Anomaly(deg)": 224.56402234873033,
        "RAAN(deg)": 9.988965112713949,
        "Satellite Name": "Constellation 1 57",
        "Satellite Number": 57,
        "Semi-Major Axis(m)": 7083131.272910544,
        "Time(s)": 195
    },
    {
        "Altitude(m)": 711698.1863347607,
        "Argument of Periapsis(deg)": 0.0117498092240995,
        "Eccentricity": 0.0,
        "Inclination(deg)": 45.0,
        "Latitude(deg)": -29.965348031864693,
        "Longitude(deg)": 124.1919510969948,
        "Mean Anomaly(deg)": 224.62472348898018,
        "RAAN(deg)": 9.988908523548378,
        "Satellite Name": "Constellation 1 57",
        "Satellite Number": 57,
        "Semi-Major Axis(m)": 7083131.272910544,
        "Time(s)": 196
    },
    {
        "Altitude(m)": 711711.8612713879,
        "Argument of Periapsis(deg)": 0.011809757230344905,
        "Eccentricity": 0.0,
        "Inclination(deg)": 45.0,
        "Latitude(deg)": -30.000592199883226,
        "Longitude(deg)": 124.24476999713755,
        "Mean Anomaly(deg)": 224.6854246292301,
        "RAAN(deg)": 9.98885193438281,
        "Satellite Name": "Constellation 1 57",
        "Satellite Number": 57,
        "Semi-Major Axis(m)": 7083131.272910544,
        "Time(s)": 197
    },
    {
        "Altitude(m)": 711725.5321256797,
        "Argument of Periapsis(deg)": 0.011869705236590313,
        "Eccentricity": 0.0,
        "Inclination(deg)": 45.0,
        "Latitude(deg)": -30.035811475822822,
        "Longitude(deg)": 124.29762897943522,
        "Mean Anomaly(deg)": 224.74612576948005,
        "RAAN(deg)": 9.988795345217241,
        "Satellite Name": "Constellation 1 57",
        "Satellite Number": 57,
        "Semi-Major Axis(m)": 7083131.272910544,
        "Time(s)": 198
    },
    {
        "Altitude(m)": 711739.1988496595,
        "Argument of Periapsis(deg)": 0.011929653242835719,
        "Eccentricity": 0.0,
        "Inclination(deg)": 45.0,
        "Latitude(deg)": -30.07100580782585,
        "Longitude(deg)": 124.35052810098858,
        "Mean Anomaly(deg)": 224.8068269097299,
        "RAAN(deg)": 9.98873875605167,
        "Satellite Name": "Constellation 1 57",
        "Satellite Number": 57,
        "Semi-Major Axis(m)": 7083131.272910544,
        "Time(s)": 199
    }
]